{"type": "FeatureCollection", "features": [ {"type": "Feature", "properties": {"norad_id": 34538, "name": "IRIDIUM 33 DEB", "group": "iridium-33-debris", "lat": 0.5678281495896106, "lon": -0.48038724829097923, "alt_km": 748.6619396330561, "timestamp": "2025-12-26T14:28:48.088269+00:00", "meta": {"OBJECT_NAME": "IRIDIUM 33 DEB", "OBJECT_ID": "1997-051JF", "EPOCH": "2025-12-24T17:48:32.243904", "MEAN_MOTION": 14.42715706, "ECCENTRICITY": 0.00319126, "INCLINATION": 86.2764, "RA_OF_ASC_NODE": 0.2977, "ARG_OF_PERICENTER": 286.3391, "MEAN_ANOMALY": 132.9527, "EPHEMERIS_TYPE": 0, "CLASSIFICATION_TYPE": "U", "NORAD_CAT_ID": 34538, "ELEMENT_SET_NO": 999, "REV_AT_EPOCH": 87929, "BSTAR": 0.00092856968, "MEAN_MOTION_DOT": 3.127e-05, "MEAN_MOTION_DDOT": 0}, "tle": {"line1": "1 34538U 97051JF  25358.74203986  .00003127  00000+0  92857-3 0  9993", "line2": "2 34538  86.2764   0.2977 0031912 286.3391 132.9527 14.42715706879292"}}, "geometry": {"type": "Point", "coordinates": [-0.48038724829097923, 0.5678281495896106]}}, {"type": "Feature", "properties": {"norad_id": 34540, "name": "IRIDIUM 33 DEB", "group": "iridium-33-debris", "lat": -71.42922277785752, "lon": 132.33980281784855, "alt_km": 660.3061212297316, "timestamp": "2025-12-26T14:28:48.088279+00:00", "meta": {"OBJECT_NAME": "IRIDIUM 33 DEB", "OBJECT_ID": "1997-051JH", "EPOCH": "2025-12-26T07:30:51.838272", "MEAN_MOTION": 14.75597732, "ECCENTRICITY": 0.00184404, "INCLINATION": 86.311, "RA_OF_ASC_NODE": 301.401, "ARG_OF_PERICENTER": 114.305, "MEAN_ANOMALY": 36.5387, "EPHEMERIS_TYPE": 0, "CLASSIFICATION_TYPE": "U", "NORAD_CAT_ID": 34540, "ELEMENT_SET_NO": 999, "REV_AT_EPOCH": 89221, "BSTAR": 0.0015801792, "MEAN_MOTION_DOT": 0.00010835, "MEAN_MOTION_DDOT": 0}, "tle": {"line1": "1 34540U 97051JH  25360.31309998  .00010835  00000+0  15802-2 0  9990", "line2": "2 34540  86.3110 301.4010 0018440 114.3050  36.5387 14.75597732892211"}}, "geometry": {"type": "Point", "coordinates": [132.33980281784855, -71.42922277785752]}}, {"type": "Feature", "properties": {"norad_id": 34648, "name": "IRIDIUM 33 DEB", "group": "iridium-33-debris", "lat": 79.56136476459771, "lon": 76.3107711890297, "alt_km": 962.7856029310269, "timestamp": "2025-12-26T14:28:48.088289+00:00", "meta": {"OBJECT_NAME": "IRIDIUM 33 DEB", "OBJECT_ID": "1997-051JZ", "EPOCH": "2025-12-24T12:40:05.266272", "MEAN_MOTION": 14.11825085, "ECCENTRICITY": 0.01786115, "INCLINATION": 86.3902, "RA_OF_ASC_NODE": 277.1873, "ARG_OF_PERICENTER": 261.8681, "MEAN_ANOMALY": 96.2208, "EPHEMERIS_TYPE": 0, "CLASSIFICATION_TYPE": "U", "NORAD_CAT_ID": 34648, "ELEMENT_SET_NO": 999, "REV_AT_EPOCH": 85127, "BSTAR": 0.0070051894, "MEAN_MOTION_DOT": 0.00014884, "MEAN_MOTION_DDOT": 0}, "tle": {"line1": "1 34648U 97051JZ  25358.52783873  .00014884  00000+0  70052-2 0  9993", "line2": "2 34648  86.3902 277.1873 0178611 261.8681  96.2208 14.11825085851271"}}, "geometry": {"type": "Point", "coordinates": [76.3107711890297, 79.56136476459771]}}, {"type": "Feature", "properties": {"norad_id": 34651, "name": "IRIDIUM 33 DEB", "group": "iridium-33-debris", "lat": 32.501241759841264, "lon": -47.69478042002382, "alt_km": 703.5708371995179, "timestamp": "2025-12-26T14:28:48.088300+00:00", "meta": {"OBJECT_NAME": "IRIDIUM 33 DEB", "OBJECT_ID": "1997-051KC", "EPOCH": "2025-12-25T15:53:57.959232", "MEAN_MOTION": 14.26027654, "ECCENTRICITY": 0.0142018, "INCLINATION": 86.2827, "RA_OF_ASC_NODE": 135.0795, "ARG_OF_PERICENTER": 163.1805, "MEAN_ANOMALY": 197.4168, "EPHEMERIS_TYPE": 0, "CLASSIFICATION_TYPE": "U", "NORAD_CAT_ID": 34651, "ELEMENT_SET_NO": 999, "REV_AT_EPOCH": 86080, "BSTAR": 0.0036817, "MEAN_MOTION_DOT": 9.797e-05, "MEAN_MOTION_DDOT": 0}, "tle": {"line1": "1 34651U 97051KC  25359.66247638  .00009797  00000+0  36817-2 0  9995", "line2": "2 34651  86.2827 135.0795 0142018 163.1805 197.4168 14.26027654860809"}}, "geometry": {"type": "Point", "coordinates": [-47.69478042002382, 32.501241759841264]}}, {"type": "Feature", "properties": {"norad_id": 34652, "name": "IRIDIUM 33 DEB", "group": "iridium-33-debris", "lat": -22.28275362866633, "lon": 155.3345144946393, "alt_km": 678.9787013703153, "timestamp": "2025-12-26T14:28:48.088310+00:00", "meta": {"OBJECT_NAME": "IRIDIUM 33 DEB", "OBJECT_ID": "1997-051KD", "EPOCH": "2025-12-25T04:47:40.914240", "MEAN_MOTION": 14.62168979, "ECCENTRICITY": 0.0025437, "INCLINATION": 86.3321, "RA_OF_ASC_NODE": 334.4529, "ARG_OF_PERICENTER": 252.4347, "MEAN_ANOMALY": 126.6927, "EPHEMERIS_TYPE": 0, "CLASSIFICATION_TYPE": "U", "NORAD_CAT_ID": 34652, "ELEMENT_SET_NO": 999, "REV_AT_EPOCH": 88666, "BSTAR": 0.0010092, "MEAN_MOTION_DOT": 5.122e-05, "MEAN_MOTION_DDOT": 0}, "tle": {"line1": "1 34652U 97051KD  25359.19977910  .00005122  00000+0  10092-2 0  9992", "line2": "2 34652  86.3321 334.4529 0025437 252.4347 126.6927 14.62168979886663"}}, "geometry": {"type": "Point", "coordinates": [155.3345144946393, -22.28275362866633]}}, {"type": "Feature", "properties": {"norad_id": 34690, "name": "IRIDIUM 33 DEB", "group": "iridium-33-debris", "lat": 76.0420176901643, "lon": 45.73246141354254, "alt_km": 702.2309034959062, "timestamp": "2025-12-26T14:28:48.088321+00:00", "meta": {"OBJECT_NAME": "IRIDIUM 33 DEB", "OBJECT_ID": "1997-051KM", "EPOCH": "2025-12-26T01:03:16.116192", "MEAN_MOTION": 14.55142163, "ECCENTRICITY": 0.00093058, "INCLINATION": 86.3773, "RA_OF_ASC_NODE": 31.2082, "ARG_OF_PERICENTER": 344.5785, "MEAN_ANOMALY": 43.326, "EPHEMERIS_TYPE": 0, "CLASSIFICATION_TYPE": "U", "NORAD_CAT_ID": 34690, "ELEMENT_SET_NO": 999, "REV_AT_EPOCH": 88288, "BSTAR": 0.00040777266, "MEAN_MOTION_DOT": 1.782e-05, "MEAN_MOTION_DDOT": 0}, "tle": {"line1": "1 34690U 97051KM  25360.04393653  .00001782  00000+0  40777-3 0  9998", "line2": "2 34690  86.3773  31.2082 0009305 344.5785  43.3260 14.55142163882881"}}, "geometry": {"type": "Point", "coordinates": [45.73246141354254, 76.0420176901643]}}, {"type": "Feature", "properties": {"norad_id": 34693, "name": "IRIDIUM 33 DEB", "group": "iridium-33-debris", "lat": -56.42317505126566, "lon": 122.50805245611123, "alt_km": 484.26668311153935, "timestamp": "2025-12-26T14:28:48.088331+00:00", "meta": {"OBJECT_NAME": "IRIDIUM 33 DEB", "OBJECT_ID": "1997-051KQ", "EPOCH": "2025-12-26T01:27:45.722304", "MEAN_MOTION": 15.31326155, "ECCENTRICITY": 0.00092905, "INCLINATION": 86.3048, "RA_OF_ASC_NODE": 297.1918, "ARG_OF_PERICENTER": 31.3326, "MEAN_ANOMALY": 97.0934, "EPHEMERIS_TYPE": 0, "CLASSIFICATION_TYPE": "U", "NORAD_CAT_ID": 34693, "ELEMENT_SET_NO": 999, "REV_AT_EPOCH": 89118, "BSTAR": 0.0045759793, "MEAN_MOTION_DOT": 0.00140905, "MEAN_MOTION_DDOT": 0}, "tle": {"line1": "1 34693U 97051KQ  25360.06094586  .00140905  00000+0  45760-2 0  9993", "line2": "2 34693  86.3048 297.1918 0009290  31.3326  97.0934 15.31326155891182"}}, "geometry": {"type": "Point", "coordinates": [122.50805245611123, -56.42317505126566]}}, {"type": "Feature", "properties": {"norad_id": 34696, "name": "IRIDIUM 33 DEB", "group": "iridium-33-debris", "lat": 7.428815670164868, "lon": 21.568189876832623, "alt_km": 697.0728142233511, "timestamp": "2025-12-26T14:28:48.088341+00:00", "meta": {"OBJECT_NAME": "IRIDIUM 33 DEB", "OBJECT_ID": "1997-051KT", "EPOCH": "2025-12-26T01:36:24.067008", "MEAN_MOTION": 14.65708991, "ECCENTRICITY": 0.00738933, "INCLINATION": 86.1852, "RA_OF_ASC_NODE": 21.3194, "ARG_OF_PERICENTER": 122.6811, "MEAN_ANOMALY": 297.1917, "EPHEMERIS_TYPE": 0, "CLASSIFICATION_TYPE": "U", "NORAD_CAT_ID": 34696, "ELEMENT_SET_NO": 999, "REV_AT_EPOCH": 86868, "BSTAR": 0.0037727771, "MEAN_MOTION_DOT": 0.00021447, "MEAN_MOTION_DDOT": 0}, "tle": {"line1": "1 34696U 97051KT  25360.06694522  .00021447  00000+0  37728-2 0  9996", "line2": "2 34696  86.1852  21.3194 0073893 122.6811 297.1917 14.65708991868683"}}, "geometry": {"type": "Point", "coordinates": [21.568189876832623, 7.428815670164868]}}, {"type": "Feature", "properties": {"norad_id": 34765, "name": "IRIDIUM 33 DEB", "group": "iridium-33-debris", "lat": 83.38308321560145, "lon": 173.30087079552524, "alt_km": 745.1853844053212, "timestamp": "2025-12-26T14:28:48.088351+00:00", "meta": {"OBJECT_NAME": "IRIDIUM 33 DEB", "OBJECT_ID": "1997-051LJ", "EPOCH": "2025-12-26T02:40:33.184416", "MEAN_MOTION": 14.40497452, "ECCENTRICITY": 0.00169729, "INCLINATION": 86.3379, "RA_OF_ASC_NODE": 27.0226, "ARG_OF_PERICENTER": 166.6572, "MEAN_ANOMALY": 260.0722, "EPHEMERIS_TYPE": 0, "CLASSIFICATION_TYPE": "U", "NORAD_CAT_ID": 34765, "ELEMENT_SET_NO": 999, "REV_AT_EPOCH": 87806, "BSTAR": 0.00037005237, "MEAN_MOTION_DOT": 1.198e-05, "MEAN_MOTION_DDOT": 0}, "tle": {"line1": "1 34765U 97051LJ  25360.11149519  .00001198  00000+0  37005-3 0  9990", "line2": "2 34765  86.3379  27.0226 0016972 166.6572 260.0722 14.40497452878068"}}, "geometry": {"type": "Point", "coordinates": [173.30087079552524, 83.38308321560145]}}, {"type": "Feature", "properties": {"norad_id": 34833, "name": "IRIDIUM 33 DEB", "group": "iridium-33-debris", "lat": 75.53581159415914, "lon": 59.177074030682114, "alt_km": 696.466162889028, "timestamp": "2025-12-26T14:28:48.088362+00:00", "meta": {"OBJECT_NAME": "IRIDIUM 33 DEB", "OBJECT_ID": "1997-051MH", "EPOCH": "2025-12-26T02:41:22.045344", "MEAN_MOTION": 14.52451151, "ECCENTRICITY": 0.00211523, "INCLINATION": 86.3918, "RA_OF_ASC_NODE": 45.2295, "ARG_OF_PERICENTER": 57.6143, "MEAN_ANOMALY": 331.1785, "EPHEMERIS_TYPE": 0, "CLASSIFICATION_TYPE": "U", "NORAD_CAT_ID": 34833, "ELEMENT_SET_NO": 999, "REV_AT_EPOCH": 87909, "BSTAR": 0.00066936049, "MEAN_MOTION_DOT": 2.757e-05, "MEAN_MOTION_DDOT": 0}, "tle": {"line1": "1 34833U 97051MH  25360.11206071  .00002757  00000+0  66936-3 0  9990", "line2": "2 34833  86.3918  45.2295 0021152  57.6143 331.1785 14.52451151879092"}}, "geometry": {"type": "Point", "coordinates": [59.177074030682114, 75.53581159415914]}}]}